     2.10           N: GPS NAV DATA                         RINEX VERSION / TYPE
RTKCONV 2.4.2                           20231216 164958 UTC PGM / RUN BY / DATE 
log: C:\Users\adminlocal\Desktop\verniquet\verniquet\micro  COMMENT             
format: u-blox                                              COMMENT             
                                                            END OF HEADER       
15 23 12 16 14  0  0.0  .107525382191E-03  .386535248253E-11  .000000000000E+00
     .290000000000E+02 -.124156250000E+03  .489913263997E-08  .190640899203E+01
    -.652857124805E-05  .154377804138E-01  .102836638689E-04  .515359036446E+04
     .568800000000E+06 -.316649675369E-07  .688652836561E+00 -.383704900742E-06
     .934107578039E+00  .168625000000E+03  .128077046813E+01 -.804926385558E-08
     .261796619166E-09  .100000000000E+01  .229200000000E+04  .000000000000E+00
     .240000000000E+01  .000000000000E+00 -.102445483208E-07  .290000000000E+02
     .561636000000E+06  .400000000000E+01
13 23 12 16 13 59 44.0  .606231391430E-03  .386535248253E-11  .000000000000E+00
     .200000000000E+01 -.820312500000E+02  .412981488051E-08  .258262328716E+01
    -.419840216637E-05  .772504671477E-02  .118929892778E-04  .515366494560E+04
     .568784000000E+06 -.242143869400E-07  .975720954283E+00 -.987201929092E-07
     .970567411343E+00  .153843750000E+03  .953002916145E+00 -.753852829568E-08
     .445018536808E-09  .100000000000E+01  .229200000000E+04  .000000000000E+00
     .240000000000E+01  .000000000000E+00 -.111758708954E-07  .200000000000E+01
     .561636000000E+06  .400000000000E+01
24 23 12 16 14  0  0.0 -.394558534026E-03 -.807176547823E-11  .000000000000E+00
     .580000000000E+02  .565625000000E+01  .554701676980E-08  .112311765450E+01
     .422820448875E-06  .149819168728E-01  .806711614132E-05  .515361814499E+04
     .568800000000E+06 -.180676579475E-06  .179035847011E+01  .182539224625E-06
     .933449591134E+00  .212125000000E+03  .953269550520E+00 -.858214319500E-08
     .343585740297E-09  .100000000000E+01  .229200000000E+04  .000000000000E+00
     .240000000000E+01  .000000000000E+00  .232830643654E-08  .580000000000E+02
     .561636000000E+06  .400000000000E+01
22 23 12 16 14  0  0.0  .650342553854E-04 -.670752342558E-11  .000000000000E+00
     .260000000000E+02  .993750000000E+01  .447090051667E-08 -.279186575765E+01
     .527128577232E-06  .148333885008E-01  .857748091221E-05  .515371973228E+04
     .568800000000E+06  .111758708954E-06  .302121912974E+01  .156462192535E-06
     .962814562874E+00  .214500000000E+03 -.115401905595E+01 -.757138680722E-08
    -.600382151184E-09  .100000000000E+01  .229200000000E+04  .000000000000E+00
     .240000000000E+01  .000000000000E+00 -.111758708954E-07  .260000000000E+02
     .561636000000E+06  .400000000000E+01
23 23 12 16 14  0  0.0  .117168296129E-03  .693489710102E-11  .000000000000E+00
     .330000000000E+02 -.976250000000E+02  .429017870316E-08 -.169772814896E+00
    -.505521893501E-05  .393372611143E-02  .289268791676E-05  .515370085907E+04
     .568800000000E+06  .726431608200E-07 -.239559229895E+00  .968575477600E-07
     .977126938516E+00  .331937500000E+03 -.300905596216E+01 -.823748598150E-08
    -.124290891500E-09  .100000000000E+01  .229200000000E+04  .000000000000E+00
     .240000000000E+01  .000000000000E+00 -.838190317154E-08  .801000000000E+03
     .561636000000E+06  .400000000000E+01
14 23 12 16 14  0  0.0  .272457487881E-03  .105728759081E-10  .000000000000E+00
     .172000000000E+03 -.256250000000E+01  .499949396328E-08 -.633466398121E+00
    -.279396772385E-06  .375178258400E-02  .805594027042E-05  .515367453957E+04
     .568800000000E+06  .128522515297E-06  .295803707158E+01  .931322574615E-08
     .947242930756E+00  .219781250000E+03 -.295870947554E+01 -.812640992616E-08
    -.617882880159E-09  .100000000000E+01  .229200000000E+04  .000000000000E+00
     .240000000000E+01  .000000000000E+00 -.791624188423E-08  .172000000000E+03
     .561636000000E+06  .400000000000E+01
17 23 12 16 13 59 44.0  .721896067262E-03 -.568434188608E-12  .000000000000E+00
     .200000000000E+02  .115093750000E+03  .385980363346E-08  .295983880441E+01
     .610575079918E-05  .137978735147E-01  .959262251854E-05  .515363943672E+04
     .568784000000E+06  .199303030968E-06 -.224441695448E+01  .186264514923E-07
     .971520230369E+00  .198218750000E+03 -.135930788353E+01 -.744066707651E-08
    -.208580116771E-09  .100000000000E+01  .229200000000E+04  .000000000000E+00
     .240000000000E+01  .000000000000E+00 -.111758708954E-07  .200000000000E+02
     .561636000000E+06  .400000000000E+01
19 23 12 16 14  0  0.0  .413282308728E-03  .522959453519E-11  .000000000000E+00
     .370000000000E+02  .111437500000E+03  .393587823084E-08 -.127326450318E+01
     .581517815590E-05  .936624140013E-02  .991672277451E-05  .515367631149E+04
     .568800000000E+06 -.128522515297E-06 -.219999919354E+01 -.949949026108E-07
     .970630202713E+00  .196375000000E+03  .245968693858E+01 -.778853870961E-08
    -.367872466222E-10  .100000000000E+01  .229200000000E+04  .000000000000E+00
     .240000000000E+01  .000000000000E+00 -.153668224812E-07  .370000000000E+02
     .561636000000E+06  .400000000000E+01
10 23 12 16 14  0  0.0 -.655455514789E-04 -.159161572810E-11  .000000000000E+00
     .850000000000E+02 -.964062500000E+02  .409338479162E-08 -.133772584371E+01
    -.497326254845E-05  .922314927448E-02  .298209488392E-05  .515368871117E+04
     .568800000000E+06  .275671482086E-06 -.211369249086E+00 -.186264514923E-08
     .981998761470E+00  .328625000000E+03 -.241044188883E+01 -.801319092442E-08
    -.689314426998E-10  .100000000000E+01  .229200000000E+04  .000000000000E+00
     .240000000000E+01  .000000000000E+00  .232830643654E-08  .850000000000E+02
     .561666000000E+06  .400000000000E+01
12 23 12 16 14  0  0.0 -.458035618067E-03 -.397903932026E-11  .000000000000E+00
     .880000000000E+02  .693750000000E+01  .473769734411E-08 -.605823873442E+00
     .340864062309E-06  .882308278233E-02  .791810452938E-05  .515373532486E+04
     .568800000000E+06 -.726431608200E-07  .299988225012E+01  .763684511185E-07
     .963938170271E+00  .229656250000E+03  .139752233054E+01 -.810033741157E-08
    -.545737017852E-09  .100000000000E+01  .229200000000E+04  .000000000000E+00
     .240000000000E+01  .000000000000E+00 -.125728547573E-07  .880000000000E+02
     .561666000000E+06  .400000000000E+01
30 23 12 16 14  0  0.0 -.456777401268E-03  .432009983342E-11  .000000000000E+00
     .320000000000E+02  .151875000000E+02  .552665877895E-08 -.164440140563E-01
     .761821866035E-06  .662630726583E-02  .675953924656E-05  .515371202850E+04
     .568800000000E+06 -.204890966415E-07  .188766136330E+01  .800937414169E-07
     .934954388169E+00  .233281250000E+03 -.255371356383E+01 -.852892669260E-08
     .309298597814E-09  .100000000000E+01  .229200000000E+04  .000000000000E+00
     .240000000000E+01  .000000000000E+00  .372529029846E-08  .320000000000E+02
     .561666000000E+06  .400000000000E+01
 5 23 12 16 14  0  0.0 -.154340639710E-03 -.147792889038E-11  .000000000000E+00
     .250000000000E+02 -.107343750000E+03  .446447167745E-08 -.304124341344E+01
    -.569596886635E-05  .581403134856E-02  .260770320892E-05  .515377607536E+04
     .568800000000E+06  .372529029846E-07 -.257979652128E+00 -.204890966415E-07
     .969277541843E+00  .334187500000E+03  .123972246145E+01 -.820641325862E-08
    -.117504894551E-09  .100000000000E+01  .229200000000E+04  .000000000000E+00
     .240000000000E+01  .000000000000E+00 -.111758708954E-07  .250000000000E+02
     .561726000000E+06  .400000000000E+01
